CYGNUS NG-23            
1 65616U 25208A   25360.21233527  .00013862  00000+0  25187-3 0  9997
2 65616  51.6319  75.7553 0003236 303.1667  56.9011 15.49833819   220
DRAGONFLY               
1 65729U 98067XH  25359.43594503  .00205682  00000+0  12462-2 0  9995
2 65729  51.6246  70.5435 0008108 352.3473   7.7402 15.76365427 15162
1998-067XK              
1 65731U 98067XK  25360.19027259  .00100200  00000+0  86718-3 0  9998
2 65731  51.6285  68.8624 0005032 329.4529  30.6174 15.68357423 15257
RSP-03                  
1 65732U 98067XL  25360.29392930  .00141327  00000+0  10358-2 0  9992
2 65732  51.6258  67.2883 0006064 337.3449  22.7281 15.72184248 15296
GHS-01                  
1 65733U 98067XM  25359.48560038  .00286420  00000+0  14102-2 0  9993
2 65733  51.6282  69.3856 0009282 357.4612   2.6342 15.80737686 15190
YOTSUBA-KULOVER         
1 65941U 98067XN  25360.29028915  .00067818  00000+0  78259-3 0  9990
2 65941  51.6287  71.7809 0002594   4.0167 356.0846 15.61282637 11977
BOTAN                   
1 65942U 98067XP  25360.26179614  .00111235  00000+0  10674-2 0  9990
2 65942  51.6275  70.8385 0003564 345.7740  14.3155 15.65764199 11984
E-KAGAKU-1              
1 65943U 98067XQ  25359.45825213  .00070327  00000+0  81460-3 0  9991
2 65943  51.6310  75.9814 0001457 327.9549  32.1355 15.61171734 11844
HRC MONOBLOCK CAMERA    
1 66052U 98067XR  25360.21478807  .00035049  00000+0  51625-3 0  9994
2 66052  51.6302  74.2731 0001988 250.8645 109.2130 15.55072790 10938
HTV-X1                  
1 66174U 25241A   25360.21233527  .00013862  00000+0  25187-3 0  9994
2 66174  51.6319  75.7553 0003236 303.1667  56.9011 15.49833819   512
SZ-21 MODULE            
1 66515U 25246C   25359.19228706  .00029146  00000+0  31272-3 0  9990
2 66515  41.4767 300.0489 0004589 327.9877  32.0683 15.63137537  6398
SHENZHOU-22             
1 66645U 25272A   25360.22743832  .00019151  00000+0  23602-3 0  9994
2 66645  41.4680 294.7909 0008517 149.5046 210.6289 15.59708409265988
