CCSDS_OMM_VERS = 2.0
CREATION_DATE  = 
ORIGINATOR     = 

OBJECT_NAME    = CYGNUS NG-23
OBJECT_ID      = 2025-208A
CENTER_NAME    = EARTH
REF_FRAME      = TEME
TIME_SYSTEM    = UTC
MEAN_ELEMENT_THEORY = SGP/SGP4

EPOCH          = 2025-12-26T05:05:45.767328
MEAN_MOTION    = 15.49833819
ECCENTRICITY   = .00032367
INCLINATION    = 51.6319
RA_OF_ASC_NODE = 75.7553
ARG_OF_PERICENTER = 303.1667
MEAN_ANOMALY   = 56.9011

EPHEMERIS_TYPE = 0
CLASSIFICATION_TYPE = U
NORAD_CAT_ID   = 65616
ELEMENT_SET_NO = 999
REV_AT_EPOCH   = 22
BSTAR          = .25187037E-3
MEAN_MOTION_DOT = .13862E-3
MEAN_MOTION_DDOT = 0

CCSDS_OMM_VERS = 2.0
CREATION_DATE  = 
ORIGINATOR     = 

OBJECT_NAME    = DRAGONFLY
OBJECT_ID      = 1998-067XH
CENTER_NAME    = EARTH
REF_FRAME      = TEME
TIME_SYSTEM    = UTC
MEAN_ELEMENT_THEORY = SGP/SGP4

EPOCH          = 2025-12-25T10:27:45.650592
MEAN_MOTION    = 15.76365427
ECCENTRICITY   = .0008108
INCLINATION    = 51.6246
RA_OF_ASC_NODE = 70.5435
ARG_OF_PERICENTER = 352.3473
MEAN_ANOMALY   = 7.7402

EPHEMERIS_TYPE = 0
CLASSIFICATION_TYPE = U
NORAD_CAT_ID   = 65729
ELEMENT_SET_NO = 999
REV_AT_EPOCH   = 1516
BSTAR          = .12462E-2
MEAN_MOTION_DOT = .205682E-2
MEAN_MOTION_DDOT = 0

CCSDS_OMM_VERS = 2.0
CREATION_DATE  = 
ORIGINATOR     = 

OBJECT_NAME    = 1998-067XK
OBJECT_ID      = 1998-067XK
CENTER_NAME    = EARTH
REF_FRAME      = TEME
TIME_SYSTEM    = UTC
MEAN_ELEMENT_THEORY = SGP/SGP4

EPOCH          = 2025-12-26T04:33:59.551776
MEAN_MOTION    = 15.68357423
ECCENTRICITY   = .00050322
INCLINATION    = 51.6285
RA_OF_ASC_NODE = 68.8624
ARG_OF_PERICENTER = 329.4529
MEAN_ANOMALY   = 30.6174

EPHEMERIS_TYPE = 0
CLASSIFICATION_TYPE = U
NORAD_CAT_ID   = 65731
ELEMENT_SET_NO = 999
REV_AT_EPOCH   = 1525
BSTAR          = .8671842E-3
MEAN_MOTION_DOT = .1002E-2
MEAN_MOTION_DDOT = 0

CCSDS_OMM_VERS = 2.0
CREATION_DATE  = 
ORIGINATOR     = 

OBJECT_NAME    = RSP-03
OBJECT_ID      = 1998-067XL
CENTER_NAME    = EARTH
REF_FRAME      = TEME
TIME_SYSTEM    = UTC
MEAN_ELEMENT_THEORY = SGP/SGP4

EPOCH          = 2025-12-26T07:03:15.491520
MEAN_MOTION    = 15.72184248
ECCENTRICITY   = .00060645
INCLINATION    = 51.6258
RA_OF_ASC_NODE = 67.2883
ARG_OF_PERICENTER = 337.3449
MEAN_ANOMALY   = 22.7281

EPHEMERIS_TYPE = 0
CLASSIFICATION_TYPE = U
NORAD_CAT_ID   = 65732
ELEMENT_SET_NO = 999
REV_AT_EPOCH   = 1529
BSTAR          = .10358178E-2
MEAN_MOTION_DOT = .141327E-2
MEAN_MOTION_DDOT = 0

CCSDS_OMM_VERS = 2.0
CREATION_DATE  = 
ORIGINATOR     = 

OBJECT_NAME    = GHS-01
OBJECT_ID      = 1998-067XM
CENTER_NAME    = EARTH
REF_FRAME      = TEME
TIME_SYSTEM    = UTC
MEAN_ELEMENT_THEORY = SGP/SGP4

EPOCH          = 2025-12-25T11:39:15.872832
MEAN_MOTION    = 15.80737686
ECCENTRICITY   = .0009282
INCLINATION    = 51.6282
RA_OF_ASC_NODE = 69.3856
ARG_OF_PERICENTER = 357.4612
MEAN_ANOMALY   = 2.6342

EPHEMERIS_TYPE = 0
CLASSIFICATION_TYPE = U
NORAD_CAT_ID   = 65733
ELEMENT_SET_NO = 999
REV_AT_EPOCH   = 1519
BSTAR          = .14102E-2
MEAN_MOTION_DOT = .28642E-2
MEAN_MOTION_DDOT = 0

CCSDS_OMM_VERS = 2.0
CREATION_DATE  = 
ORIGINATOR     = 

OBJECT_NAME    = YOTSUBA-KULOVER
OBJECT_ID      = 1998-067XN
CENTER_NAME    = EARTH
REF_FRAME      = TEME
TIME_SYSTEM    = UTC
MEAN_ELEMENT_THEORY = SGP/SGP4

EPOCH          = 2025-12-26T06:58:00.982560
MEAN_MOTION    = 15.61282637
ECCENTRICITY   = .00025945
INCLINATION    = 51.6287
RA_OF_ASC_NODE = 71.7809
ARG_OF_PERICENTER = 4.0167
MEAN_ANOMALY   = 356.0846

EPHEMERIS_TYPE = 0
CLASSIFICATION_TYPE = U
NORAD_CAT_ID   = 65941
ELEMENT_SET_NO = 999
REV_AT_EPOCH   = 1197
BSTAR          = .78259274E-3
MEAN_MOTION_DOT = .67818E-3
MEAN_MOTION_DDOT = 0

CCSDS_OMM_VERS = 2.0
CREATION_DATE  = 
ORIGINATOR     = 

OBJECT_NAME    = BOTAN
OBJECT_ID      = 1998-067XP
CENTER_NAME    = EARTH
REF_FRAME      = TEME
TIME_SYSTEM    = UTC
MEAN_ELEMENT_THEORY = SGP/SGP4

EPOCH          = 2025-12-26T06:16:59.186496
MEAN_MOTION    = 15.65764199
ECCENTRICITY   = .00035647
INCLINATION    = 51.6275
RA_OF_ASC_NODE = 70.8385
ARG_OF_PERICENTER = 345.7740
MEAN_ANOMALY   = 14.3155

EPHEMERIS_TYPE = 0
CLASSIFICATION_TYPE = U
NORAD_CAT_ID   = 65942
ELEMENT_SET_NO = 999
REV_AT_EPOCH   = 1198
BSTAR          = .10674259E-2
MEAN_MOTION_DOT = .111235E-2
MEAN_MOTION_DDOT = 0

CCSDS_OMM_VERS = 2.0
CREATION_DATE  = 
ORIGINATOR     = 

OBJECT_NAME    = E-KAGAKU-1
OBJECT_ID      = 1998-067XQ
CENTER_NAME    = EARTH
REF_FRAME      = TEME
TIME_SYSTEM    = UTC
MEAN_ELEMENT_THEORY = SGP/SGP4

EPOCH          = 2025-12-25T10:59:52.984032
MEAN_MOTION    = 15.61171734
ECCENTRICITY   = .00014574
INCLINATION    = 51.6310
RA_OF_ASC_NODE = 75.9814
ARG_OF_PERICENTER = 327.9549
MEAN_ANOMALY   = 32.1355

EPHEMERIS_TYPE = 0
CLASSIFICATION_TYPE = U
NORAD_CAT_ID   = 65943
ELEMENT_SET_NO = 999
REV_AT_EPOCH   = 1184
BSTAR          = .81459816E-3
MEAN_MOTION_DOT = .70327E-3
MEAN_MOTION_DDOT = 0

CCSDS_OMM_VERS = 2.0
CREATION_DATE  = 
ORIGINATOR     = 

OBJECT_NAME    = HRC MONOBLOCK CAMERA
OBJECT_ID      = 1998-067XR
CENTER_NAME    = EARTH
REF_FRAME      = TEME
TIME_SYSTEM    = UTC
MEAN_ELEMENT_THEORY = SGP/SGP4

EPOCH          = 2025-12-26T05:09:17.689248
MEAN_MOTION    = 15.55072790
ECCENTRICITY   = .00019885
INCLINATION    = 51.6302
RA_OF_ASC_NODE = 74.2731
ARG_OF_PERICENTER = 250.8645
MEAN_ANOMALY   = 109.2130

EPHEMERIS_TYPE = 0
CLASSIFICATION_TYPE = U
NORAD_CAT_ID   = 66052
ELEMENT_SET_NO = 999
REV_AT_EPOCH   = 1093
BSTAR          = .51624827E-3
MEAN_MOTION_DOT = .35049E-3
MEAN_MOTION_DDOT = 0

CCSDS_OMM_VERS = 2.0
CREATION_DATE  = 
ORIGINATOR     = 

OBJECT_NAME    = HTV-X1
OBJECT_ID      = 2025-241A
CENTER_NAME    = EARTH
REF_FRAME      = TEME
TIME_SYSTEM    = UTC
MEAN_ELEMENT_THEORY = SGP/SGP4

EPOCH          = 2025-12-26T05:05:45.767328
MEAN_MOTION    = 15.49833819
ECCENTRICITY   = .00032367
INCLINATION    = 51.6319
RA_OF_ASC_NODE = 75.7553
ARG_OF_PERICENTER = 303.1667
MEAN_ANOMALY   = 56.9011

EPHEMERIS_TYPE = 0
CLASSIFICATION_TYPE = U
NORAD_CAT_ID   = 66174
ELEMENT_SET_NO = 999
REV_AT_EPOCH   = 51
BSTAR          = .25187037E-3
MEAN_MOTION_DOT = .13862E-3
MEAN_MOTION_DDOT = 0

CCSDS_OMM_VERS = 2.0
CREATION_DATE  = 
ORIGINATOR     = 

OBJECT_NAME    = SZ-21 MODULE
OBJECT_ID      = 2025-246C
CENTER_NAME    = EARTH
REF_FRAME      = TEME
TIME_SYSTEM    = UTC
MEAN_ELEMENT_THEORY = SGP/SGP4

EPOCH          = 2025-12-25T04:36:53.601984
MEAN_MOTION    = 15.63137537
ECCENTRICITY   = .0004589
INCLINATION    = 41.4767
RA_OF_ASC_NODE = 300.0489
ARG_OF_PERICENTER = 327.9877
MEAN_ANOMALY   = 32.0683

EPHEMERIS_TYPE = 0
CLASSIFICATION_TYPE = U
NORAD_CAT_ID   = 66515
ELEMENT_SET_NO = 999
REV_AT_EPOCH   = 639
BSTAR          = .31272E-3
MEAN_MOTION_DOT = .29146E-3
MEAN_MOTION_DDOT = 0

CCSDS_OMM_VERS = 2.0
CREATION_DATE  = 
ORIGINATOR     = 

OBJECT_NAME    = SHENZHOU-22
OBJECT_ID      = 2025-272A
CENTER_NAME    = EARTH
REF_FRAME      = TEME
TIME_SYSTEM    = UTC
MEAN_ELEMENT_THEORY = SGP/SGP4

EPOCH          = 2025-12-26T05:27:30.670848
MEAN_MOTION    = 15.59708409
ECCENTRICITY   = .00085179
INCLINATION    = 41.4680
RA_OF_ASC_NODE = 294.7909
ARG_OF_PERICENTER = 149.5046
MEAN_ANOMALY   = 210.6289

EPHEMERIS_TYPE = 0
CLASSIFICATION_TYPE = U
NORAD_CAT_ID   = 66645
ELEMENT_SET_NO = 999
REV_AT_EPOCH   = 26598
BSTAR          = .23601706E-3
MEAN_MOTION_DOT = .19151E-3
MEAN_MOTION_DDOT = 0

